{
    "links": {
        "self": "http://www.neowsapp.com/rest/v1/neo/3825758?api_key=iIulBulltgU6a56xZRHN4H3l9WmuAYTsLGpBGhQ2"
    },
    "id": "3825758",
    "neo_reference_id": "3825758",
    "name": "(2018 OL)",
    "designation": "2018 OL",
    "nasa_jpl_url": "http://ssd.jpl.nasa.gov/sbdb.cgi?sstr=3825758",
    "absolute_magnitude_h": 24.1,
    "estimated_diameter": {
        "kilometers": {
            "estimated_diameter_min": 0.040230458,
            "estimated_diameter_max": 0.0899580388
        },
        "meters": {
            "estimated_diameter_min": 40.2304579834,
            "estimated_diameter_max": 89.9580388169
        },
        "miles": {
            "estimated_diameter_min": 0.0249980399,
            "estimated_diameter_max": 0.0558973165
        },
        "feet": {
            "estimated_diameter_min": 131.9896957704,
            "estimated_diameter_max": 295.1379320721
        }
    },
    "is_potentially_hazardous_asteroid": false,
    "close_approach_data": [
        {
            "close_approach_date": "2018-07-22",
            "close_approach_date_full": "2018-Jul-22 04:10",
            "epoch_date_close_approach": 1532232600000,
            "relative_velocity": {
                "kilometers_per_second": "16.0748604986",
                "kilometers_per_hour": "57869.4977949841",
                "miles_per_hour": "35957.8554493333"
            },
            "miss_distance": {
                "astronomical": "0.0293728293",
                "lunar": "11.4260305977",
                "kilometers": "4394112.699153591",
                "miles": "2730375.0220819158"
            },
            "orbiting_body": "Earth"
        },
        {
            "close_approach_date": "2134-06-26",
            "close_approach_date_full": "2134-Jun-26 08:59",
            "epoch_date_close_approach": 5190598740000,
            "relative_velocity": {
                "kilometers_per_second": "4.9905472452",
                "kilometers_per_hour": "17965.970082667",
                "miles_per_hour": "11163.355132755"
            },
            "miss_distance": {
                "astronomical": "1.745681511",
                "lunar": "679.070107779",
                "kilometers": "261150235.74398157",
                "miles": "162271231.874302866"
            },
            "orbiting_body": "Juptr"
        }
    ],
    "orbital_data": {
        "orbit_id": "5",
        "orbit_determination_date": "2018-07-29 06:21:27",
        "first_observation_date": "2018-07-17",
        "last_observation_date": "2018-07-20",
        "data_arc_in_days": 3,
        "observations_used": 79,
        "orbit_uncertainty": "7",
        "minimum_orbit_intersection": ".0107703",
        "jupiter_tisserand_invariant": "3.082",
        "epoch_osculation": "2459000.5",
        "eccentricity": ".6540434392434372",
        "semi_major_axis": "2.533383808365831",
        "inclination": "13.14956371713716",
        "ascending_node_longitude": "119.2285232214699",
        "orbital_period": "1472.820812714931",
        "perihelion_distance": ".8764407494186061",
        "perihelion_argument": "232.3378076080685",
        "aphelion_distance": "4.190326867313057",
        "perihelion_time": "2458358.722735870903",
        "mean_anomaly": "156.8689232878145",
        "mean_motion": ".2444289195889298",
        "equinox": "J2000",
        "orbit_class": {
            "orbit_class_type": "APO",
            "orbit_class_description": "Near-Earth asteroid orbits which cross the Earth’s orbit similar to that of 1862 Apollo",
            "orbit_class_range": "a (semi-major axis) > 1.0 AU; q (perihelion) < 1.017 AU"
        }
    },
    "is_sentry_object": false
}